[{"OBJECT_NAME":"COSMOS 2242","OBJECT_ID":"1993-024A","EPOCH":"2026-03-02T16:22:20.690688","MEAN_MOTION":14.96514959,"ECCENTRICITY":0.0015715,"INCLINATION":82.5159,"RA_OF_ASC_NODE":273.4208,"ARG_OF_PERICENTER":333.9984,"MEAN_ANOMALY":26.0447,"EPHEMERIS_TYPE":0,"CLASSIFICATION_TYPE":"U","NORAD_CAT_ID":22626,"ELEMENT_SET_NO":999,"REV_AT_EPOCH":77934,"BSTAR":0.00019019,"MEAN_MOTION_DOT":2.191e-5,"MEAN_MOTION_DDOT":0},{"OBJECT_NAME":"SL-16 R/B","OBJECT_ID":"1993-059B","EPOCH":"2026-03-02T15:07:57.463680","MEAN_MOTION":14.17231937,"ECCENTRICITY":0.0018827,"INCLINATION":70.9917,"RA_OF_ASC_NODE":26.0115,"ARG_OF_PERICENTER":226.4888,"MEAN_ANOMALY":133.4672,"EPHEMERIS_TYPE":0,"CLASSIFICATION_TYPE":"U","NORAD_CAT_ID":22803,"ELEMENT_SET_NO":999,"REV_AT_EPOCH":67853,"BSTAR":6.9181e-5,"MEAN_MOTION_DOT":9.2e-7,"MEAN_MOTION_DDOT":0},{"OBJECT_NAME":"ARIANE 40 R/B","OBJECT_ID":"1993-061H","EPOCH":"2026-03-02T18:50:53.948832","MEAN_MOTION":14.32856652,"ECCENTRICITY":0.0009674,"INCLINATION":98.4932,"RA_OF_ASC_NODE":130.809,"ARG_OF_PERICENTER":307.9331,"MEAN_ANOMALY":52.0979,"EPHEMERIS_TYPE":0,"CLASSIFICATION_TYPE":"U","NORAD_CAT_ID":22830,"ELEMENT_SET_NO":999,"REV_AT_EPOCH":69311,"BSTAR":0.00010739,"MEAN_MOTION_DOT":2.5e-6,"MEAN_MOTION_DDOT":0},{"OBJECT_NAME":"COSMOS 2278","OBJECT_ID":"1994-023A","EPOCH":"2026-03-02T19:23:51.986976","MEAN_MOTION":14.1437494,"ECCENTRICITY":0.0007614,"INCLINATION":71.054,"RA_OF_ASC_NODE":189.4927,"ARG_OF_PERICENTER":27.3073,"MEAN_ANOMALY":332.8449,"EPHEMERIS_TYPE":0,"CLASSIFICATION_TYPE":"U","NORAD_CAT_ID":23087,"ELEMENT_SET_NO":999,"REV_AT_EPOCH":64383,"BSTAR":0.00019661,"MEAN_MOTION_DOT":3.29e-6,"MEAN_MOTION_DDOT":0},{"OBJECT_NAME":"SL-16 R/B","OBJECT_ID":"1994-023B","EPOCH":"2026-03-02T12:06:15.217056","MEAN_MOTION":14.1501349,"ECCENTRICITY":0.00055626,"INCLINATION":70.9986,"RA_OF_ASC_NODE":85.9784,"ARG_OF_PERICENTER":292.6207,"MEAN_ANOMALY":67.4327,"EPHEMERIS_TYPE":0,"CLASSIFICATION_TYPE":"U","NORAD_CAT_ID":23088,"ELEMENT_SET_NO":999,"REV_AT_EPOCH":64507,"BSTAR":-8.193883e-6,"MEAN_MOTION_DOT":-6.4e-7,"MEAN_MOTION_DDOT":0},{"OBJECT_NAME":"SL-16 R/B","OBJECT_ID":"1994-074B","EPOCH":"2026-03-02T16:51:10.015200","MEAN_MOTION":14.79398306,"ECCENTRICITY":0.0005331,"INCLINATION":97.7118,"RA_OF_ASC_NODE":92.8027,"ARG_OF_PERICENTER":237.3561,"MEAN_ANOMALY":240.1306,"EPHEMERIS_TYPE":0,"CLASSIFICATION_TYPE":"U","NORAD_CAT_ID":23343,"ELEMENT_SET_NO":999,"REV_AT_EPOCH":68621,"BSTAR":8.7377e-5,"MEAN_MOTION_DOT":6.02e-6,"MEAN_MOTION_DDOT":0},{"OBJECT_NAME":"SL-16 R/B","OBJECT_ID":"1994-077B","EPOCH":"2026-03-02T20:12:35.438976","MEAN_MOTION":14.15562544,"ECCENTRICITY":0.0003469,"INCLINATION":70.985,"RA_OF_ASC_NODE":6.8935,"ARG_OF_PERICENTER":221.4268,"MEAN_ANOMALY":138.6592,"EPHEMERIS_TYPE":0,"CLASSIFICATION_TYPE":"U","NORAD_CAT_ID":23405,"ELEMENT_SET_NO":999,"REV_AT_EPOCH":61526,"BSTAR":-0.0001036,"MEAN_MOTION_DOT":-2.51e-6,"MEAN_MOTION_DDOT":0},{"OBJECT_NAME":"ARIANE 40+ R/B","OBJECT_ID":"1995-021B","EPOCH":"2026-03-02T19:22:37.099776","MEAN_MOTION":14.39766516,"ECCENTRICITY":0.0007357,"INCLINATION":98.4512,"RA_OF_ASC_NODE":133.3829,"ARG_OF_PERICENTER":154.7497,"MEAN_ANOMALY":316.2603,"EPHEMERIS_TYPE":0,"CLASSIFICATION_TYPE":"U","NORAD_CAT_ID":23561,"ELEMENT_SET_NO":999,"REV_AT_EPOCH":61825,"BSTAR":0.0001273,"MEAN_MOTION_DOT":3.56e-6,"MEAN_MOTION_DDOT":0},{"OBJECT_NAME":"SL-16 R/B","OBJECT_ID":"1995-058B","EPOCH":"2026-03-02T18:40:25.073472","MEAN_MOTION":14.15492688,"ECCENTRICITY":0.0011039,"INCLINATION":71.0209,"RA_OF_ASC_NODE":194.7644,"ARG_OF_PERICENTER":138.0048,"MEAN_ANOMALY":222.1923,"EPHEMERIS_TYPE":0,"CLASSIFICATION_TYPE":"U","NORAD_CAT_ID":23705,"ELEMENT_SET_NO":999,"REV_AT_EPOCH":56687,"BSTAR":-1.2568e-5,"MEAN_MOTION_DOT":-7.2e-7,"MEAN_MOTION_DDOT":0},{"OBJECT_NAME":"SL-16 R/B","OBJECT_ID":"1996-051B","EPOCH":"2026-03-02T19:12:50.821344","MEAN_MOTION":14.12413535,"ECCENTRICITY":0.0015707,"INCLINATION":70.7594,"RA_OF_ASC_NODE":189.8191,"ARG_OF_PERICENTER":158.1581,"MEAN_ANOMALY":202.0211,"EPHEMERIS_TYPE":0,"CLASSIFICATION_TYPE":"U","NORAD_CAT_ID":24298,"ELEMENT_SET_NO":999,"REV_AT_EPOCH":52067,"BSTAR":7.0493e-5,"MEAN_MOTION_DOT":8.1e-7,"MEAN_MOTION_DDOT":0},{"OBJECT_NAME":"ORBVIEW 2 (SEASTAR)","OBJECT_ID":"1997-037A","EPOCH":"2026-03-02T10:44:38.729472","MEAN_MOTION":14.35488491,"ECCENTRICITY":0.00031888,"INCLINATION":98.8553,"RA_OF_ASC_NODE":225.5681,"ARG_OF_PERICENTER":86.4858,"MEAN_ANOMALY":273.6691,"EPHEMERIS_TYPE":0,"CLASSIFICATION_TYPE":"U","NORAD_CAT_ID":24883,"ELEMENT_SET_NO":999,"REV_AT_EPOCH":50743,"BSTAR":0.00016067235,"MEAN_MOTION_DOT":4.15e-6,"MEAN_MOTION_DDOT":0},{"OBJECT_NAME":"SL-16 R/B","OBJECT_ID":"1998-043G","EPOCH":"2026-03-02T20:32:02.779008","MEAN_MOTION":14.26047932,"ECCENTRICITY":0.0010551,"INCLINATION":98.8243,"RA_OF_ASC_NODE":15.1711,"ARG_OF_PERICENTER":39.2642,"MEAN_ANOMALY":320.93,"EPHEMERIS_TYPE":0,"CLASSIFICATION_TYPE":"U","NORAD_CAT_ID":25400,"ELEMENT_SET_NO":999,"REV_AT_EPOCH":43801,"BSTAR":5.1498e-5,"MEAN_MOTION_DOT":7.8e-7,"MEAN_MOTION_DDOT":0},{"OBJECT_NAME":"SL-16 R/B","OBJECT_ID":"1998-045B","EPOCH":"2026-03-02T19:01:03.213984","MEAN_MOTION":14.16189648,"ECCENTRICITY":0.0006345,"INCLINATION":71.0112,"RA_OF_ASC_NODE":196.0774,"ARG_OF_PERICENTER":18.8432,"MEAN_ANOMALY":341.2924,"EPHEMERIS_TYPE":0,"CLASSIFICATION_TYPE":"U","NORAD_CAT_ID":25407,"ELEMENT_SET_NO":999,"REV_AT_EPOCH":42612,"BSTAR":-9.6012e-5,"MEAN_MOTION_DOT":-2.38e-6,"MEAN_MOTION_DDOT":0},{"OBJECT_NAME":"ISS (ZARYA)","OBJECT_ID":"1998-067A","EPOCH":"2026-03-02T13:02:22.015104","MEAN_MOTION":15.48401384,"ECCENTRICITY":0.0008241,"INCLINATION":51.6317,"RA_OF_ASC_NODE":107.6867,"ARG_OF_PERICENTER":149.4104,"MEAN_ANOMALY":210.7366,"EPHEMERIS_TYPE":0,"CLASSIFICATION_TYPE":"U","NORAD_CAT_ID":25544,"ELEMENT_SET_NO":999,"REV_AT_EPOCH":55522,"BSTAR":0.00019033,"MEAN_MOTION_DOT":9.842e-5,"MEAN_MOTION_DDOT":0},{"OBJECT_NAME":"CZ-4B R/B","OBJECT_ID":"1999-025C","EPOCH":"2026-03-02T18:16:53.861664","MEAN_MOTION":14.1826371,"ECCENTRICITY":0.0037139,"INCLINATION":98.6641,"RA_OF_ASC_NODE":106.2071,"ARG_OF_PERICENTER":6.6229,"MEAN_ANOMALY":105.7278,"EPHEMERIS_TYPE":0,"CLASSIFICATION_TYPE":"U","NORAD_CAT_ID":25732,"ELEMENT_SET_NO":999,"REV_AT_EPOCH":38718,"BSTAR":5.531e-5,"MEAN_MOTION_DOT":7.1e-7,"MEAN_MOTION_DDOT":0},{"OBJECT_NAME":"OKEAN-O","OBJECT_ID":"1999-039A","EPOCH":"2026-03-02T18:10:41.085408","MEAN_MOTION":14.80322247,"ECCENTRICITY":0.000147,"INCLINATION":97.9457,"RA_OF_ASC_NODE":121.7189,"ARG_OF_PERICENTER":71.5784,"MEAN_ANOMALY":288.5588,"EPHEMERIS_TYPE":0,"CLASSIFICATION_TYPE":"U","NORAD_CAT_ID":25860,"ELEMENT_SET_NO":999,"REV_AT_EPOCH":43336,"BSTAR":0.0001146,"MEAN_MOTION_DOT":8.21e-6,"MEAN_MOTION_DDOT":0},{"OBJECT_NAME":"SL-16 R/B","OBJECT_ID":"1999-039B","EPOCH":"2026-03-02T17:51:05.910624","MEAN_MOTION":14.81720143,"ECCENTRICITY":0.0013441,"INCLINATION":97.9981,"RA_OF_ASC_NODE":120.8504,"ARG_OF_PERICENTER":281.0263,"MEAN_ANOMALY":78.9437,"EPHEMERIS_TYPE":0,"CLASSIFICATION_TYPE":"U","NORAD_CAT_ID":25861,"ELEMENT_SET_NO":999,"REV_AT_EPOCH":43583,"BSTAR":9.9659e-5,"MEAN_MOTION_DOT":7.32e-6,"MEAN_MOTION_DDOT":0}]
